{
  "type": "FeatureCollection",
  "features": [
    {
      "type": "Feature",
      "properties": {
        "norad_id": 66376,
        "name": "SHIYAN-32 01",
        "group": "last-30-days",
        "lat": -27.942406899297094,
        "lon": -158.73221666128322,
        "alt_km": 437.00046500039844,
        "timestamp": "2025-12-02T21:34:00.041149+00:00",
        "meta_object_name": "SHIYAN-32 01",
        "meta_object_id": "2025-255A",
        "meta_epoch": "2025-12-02T10:50:04.771968",
        "meta_mean_motion": 15.42230531,
        "meta_eccentricity": 0.0013353,
        "meta_inclination": 52.9966,
        "meta_ra_of_asc_node": 226.9722,
        "meta_arg_of_pericenter": 10.3177,
        "meta_mean_anomaly": 349.8098,
        "meta_ephemeris_type": 0,
        "meta_classification_type": "U",
        "meta_norad_cat_id": 66376,
        "meta_element_set_no": 999,
        "meta_rev_at_epoch": 376,
        "meta_bstar": 0.00056984,
        "meta_mean_motion_dot": 0.00024596,
        "meta_mean_motion_ddot": 0,
        "tle_line1": "1 66376U 25255A   25336.45144412  .00024596  00000+0  56984-3 0  9991",
        "tle_line2": "2 66376  52.9966 226.9722 0013353  10.3177 349.8098 15.42230531  3764"
      },
      "geometry": {
        "type": "Point",
        "coordinates": [
          -158.73221666128322,
          -27.942406899297094
        ]
      }
    },
    {
      "type": "Feature",
      "properties": {
        "norad_id": 66377,
        "name": "CZ-11 DEB",
        "group": "last-30-days",
        "lat": 21.98283437228111,
        "lon": -117.55408174692056,
        "alt_km": 424.50843507785885,
        "timestamp": "2025-12-02T21:34:00.041159+00:00",
        "meta_object_name": "CZ-11 DEB",
        "meta_object_id": "2025-255B",
        "meta_epoch": "2025-12-02T07:27:35.402688",
        "meta_mean_motion": 15.43429232,
        "meta_eccentricity": 0.0013912,
        "meta_inclination": 52.9966,
        "meta_ra_of_asc_node": 227.5182,
        "meta_arg_of_pericenter": 7.4818,
        "meta_mean_anomaly": 352.6391,
        "meta_ephemeris_type": 0,
        "meta_classification_type": "U",
        "meta_norad_cat_id": 66377,
        "meta_element_set_no": 999,
        "meta_rev_at_epoch": 360,
        "meta_bstar": 0.0009775,
        "meta_mean_motion_dot": 0.00044379,
        "meta_mean_motion_ddot": 0,
        "tle_line1": "1 66377U 25255B   25336.31082642  .00044379  00000+0  97750-3 0  9990",
        "tle_line2": "2 66377  52.9966 227.5182 0013912   7.4818 352.6391 15.43429232  3602"
      },
      "geometry": {
        "type": "Point",
        "coordinates": [
          -117.55408174692056,
          21.98283437228111
        ]
      }
    },
    {
      "type": "Feature",
      "properties": {
        "norad_id": 66378,
        "name": "SHIYAN-32 02",
        "group": "last-30-days",
        "lat": 41.06980996798596,
        "lon": -94.24484642057251,
        "alt_km": 422.80802942148966,
        "timestamp": "2025-12-02T21:34:00.041171+00:00",
        "meta_object_name": "SHIYAN-32 02",
        "meta_object_id": "2025-255C",
        "meta_epoch": "2025-12-02T10:27:13.609152",
        "meta_mean_motion": 15.43954139,
        "meta_eccentricity": 0.0012583,
        "meta_inclination": 52.9978,
        "meta_ra_of_asc_node": 226.8746,
        "meta_arg_of_pericenter": 8.9715,
        "meta_mean_anomaly": 351.1512,
        "meta_ephemeris_type": 0,
        "meta_classification_type": "U",
        "meta_norad_cat_id": 66378,
        "meta_element_set_no": 999,
        "meta_rev_at_epoch": 362,
        "meta_bstar": 0.0013391,
        "meta_mean_motion_dot": 0.00062154,
        "meta_mean_motion_ddot": 0,
        "tle_line1": "1 66378U 25255C   25336.43557418  .00062154  00000+0  13391-2 0  9991",
        "tle_line2": "2 66378  52.9978 226.8746 0012583   8.9715 351.1512 15.43954139  3629"
      },
      "geometry": {
        "type": "Point",
        "coordinates": [
          -94.24484642057251,
          41.06980996798596
        ]
      }
    },
    {
      "type": "Feature",
      "properties": {
        "norad_id": 66379,
        "name": "SHIYAN-32 03",
        "group": "last-30-days",
        "lat": -3.9539306542720856,
        "lon": -138.20030111769051,
        "alt_km": 429.80823419277567,
        "timestamp": "2025-12-02T21:34:00.041185+00:00",
        "meta_object_name": "SHIYAN-32 03",
        "meta_object_id": "2025-255D",
        "meta_epoch": "2025-12-02T10:42:12.703968",
        "meta_mean_motion": 15.42586186,
        "meta_eccentricity": 0.0015379,
        "meta_inclination": 52.9972,
        "meta_ra_of_asc_node": 226.9389,
        "meta_arg_of_pericenter": 11.2025,
        "meta_mean_anomaly": 348.9318,
        "meta_ephemeris_type": 0,
        "meta_classification_type": "U",
        "meta_norad_cat_id": 66379,
        "meta_element_set_no": 999,
        "meta_rev_at_epoch": 364,
        "meta_bstar": 0.00052998,
        "meta_mean_motion_dot": 0.00023142,
        "meta_mean_motion_ddot": 0,
        "tle_line1": "1 66379U 25255D   25336.44598037  .00023142  00000+0  52998-3 0  9996",
        "tle_line2": "2 66379  52.9972 226.9389 0015379  11.2025 348.9318 15.42586186  3647"
      },
      "geometry": {
        "type": "Point",
        "coordinates": [
          -138.20030111769051,
          -3.9539306542720856
        ]
      }
    },
    {
      "type": "Feature",
      "properties": {
        "norad_id": 66380,
        "name": "STARLINK-35139",
        "group": "last-30-days",
        "lat": -40.81100114780737,
        "lon": -89.32183850971532,
        "alt_km": 452.2247299098499,
        "timestamp": "2025-12-02T21:34:00.041195+00:00",
        "meta_object_name": "STARLINK-35139",
        "meta_object_id": "2025-257A",
        "meta_epoch": "2025-12-02T12:00:05.998752",
        "meta_mean_motion": 15.395874,
        "meta_eccentricity": 9.62e-05,
        "meta_inclination": 53.1585,
        "meta_ra_of_asc_node": 312.9043,
        "meta_arg_of_pericenter": 91.4453,
        "meta_mean_anomaly": 163.6609,
        "meta_ephemeris_type": 0,
        "meta_classification_type": "U",
        "meta_norad_cat_id": 66380,
        "meta_element_set_no": 999,
        "meta_rev_at_epoch": 479,
        "meta_bstar": 0.00078761,
        "meta_mean_motion_dot": 0.00031199,
        "meta_mean_motion_ddot": 0,
        "tle_line1": "1 66380U 25257A   25336.50006943  .00031199  00000+0  78761-3 0  9994",
        "tle_line2": "2 66380  53.1585 312.9043 0000962  91.4453 163.6609 15.39587400  4790"
      },
      "geometry": {
        "type": "Point",
        "coordinates": [
          -89.32183850971532,
          -40.81100114780737
        ]
      }
    },
    {
      "type": "Feature",
      "properties": {
        "norad_id": 66381,
        "name": "STARLINK-35158",
        "group": "last-30-days",
        "lat": -39.67872896204985,
        "lon": -87.44014237738652,
        "alt_km": 452.344858585594,
        "timestamp": "2025-12-02T21:34:00.041206+00:00",
        "meta_object_name": "STARLINK-35158",
        "meta_object_id": "2025-257B",
        "meta_epoch": "2025-12-02T12:00:05.998752",
        "meta_mean_motion": 15.39584804,
        "meta_eccentricity": 0.0001233,
        "meta_inclination": 53.1584,
        "meta_ra_of_asc_node": 312.9001,
        "meta_arg_of_pericenter": 94.1436,
        "meta_mean_anomaly": 162.8018,
        "meta_ephemeris_type": 0,
        "meta_classification_type": "U",
        "meta_norad_cat_id": 66381,
        "meta_element_set_no": 999,
        "meta_rev_at_epoch": 485,
        "meta_bstar": 0.00078924,
        "meta_mean_motion_dot": 0.00031262,
        "meta_mean_motion_ddot": 0,
        "tle_line1": "1 66381U 25257B   25336.50006943  .00031262  00000+0  78924-3 0  9997",
        "tle_line2": "2 66381  53.1584 312.9001 0001233  94.1436 162.8018 15.39584804  4854"
      },
      "geometry": {
        "type": "Point",
        "coordinates": [
          -87.44014237738652,
          -39.67872896204985
        ]
      }
    },
    {
      "type": "Feature",
      "properties": {
        "norad_id": 66382,
        "name": "STARLINK-35639",
        "group": "last-30-days",
        "lat": -22.799222547359022,
        "lon": -67.3978733990336,
        "alt_km": 451.2608160067339,
        "timestamp": "2025-12-02T21:34:00.041216+00:00",
        "meta_object_name": "STARLINK-35639",
        "meta_object_id": "2025-257C",
        "meta_epoch": "2025-12-02T12:00:05.998752",
        "meta_mean_motion": 15.42104335,
        "meta_eccentricity": 0.0001335,
        "meta_inclination": 53.1586,
        "meta_ra_of_asc_node": 312.854,
        "meta_arg_of_pericenter": 82.926,
        "meta_mean_anomaly": 196.3433,
        "meta_ephemeris_type": 0,
        "meta_classification_type": "U",
        "meta_norad_cat_id": 66382,
        "meta_element_set_no": 999,
        "meta_rev_at_epoch": 485,
        "meta_bstar": -0.079484,
        "meta_mean_motion_dot": -0.03039947,
        "meta_mean_motion_ddot": 0,
        "tle_line1": "1 66382U 25257C   25336.50006943 -.03039947  00000+0 -79484-1 0  9991",
        "tle_line2": "2 66382  53.1586 312.8540 0001335  82.9260 196.3433 15.42104335  4851"
      },
      "geometry": {
        "type": "Point",
        "coordinates": [
          -67.3978733990336,
          -22.799222547359022
        ]
      }
    }
  ]
}